GLOBALSTAR M023         
1 25621U 99004A   25188.62756229 -.00000184  00000+0 -44822-3 0  9998
2 25621  52.0128 351.1998 0010151 166.1676 272.3346 12.62505678218317
GLOBALSTAR M040         
1 25622U 99004B   25188.61020971 -.00000092  00000+0  67490-4 0  9990
2 25622  51.9938 355.4384 0001705  88.0800 346.9143 12.62012150217834
GLOBALSTAR M036         
1 25623U 99004C   25188.08610448 -.00000063  00000+0  29052-3 0  9995
2 25623  51.9934 187.8722 0010995  89.4394 314.5563 11.86608217181341
GLOBALSTAR M038         
1 25624U 99004D   25187.98792941 -.00000080  00000+0  12051-3 0  9993
2 25624  51.9991  14.5479 0002733  92.0780  74.2011 12.32528842204813
GLOBALSTAR M022         
1 25649U 99012A   25188.09584876 -.00000027  00000+0  71441-3 0  9997
2 25649  52.0020 236.7826 0002791 210.1988 164.3826 12.02501323178778
GLOBALSTAR M041         
1 25650U 99012B   25188.18105494 -.00000087  00000+0 -16102-4 0  9995
2 25650  52.0009 118.6116 0001966   3.3866 356.6984 11.96681819180671
GLOBALSTAR M046         
1 25651U 99012C   25188.00732861 -.00000142  00000+0 -58831-3 0  9997
2 25651  52.0021 186.4318 0002246 293.4651  97.3355 12.09411370186067
GLOBALSTAR M037         
1 25652U 99012D   25188.13786816 -.00000090  00000+0  74512-4 0  9997
2 25652  51.9996 123.3033 0001565 239.1571 224.6833 12.62448120213791
